CCSDS_OEM_VERS = 1.0
CREATION_DATE  = 2017-05-11T11:20:11
ORIGINATOR     = GMAT USER

META_START
OBJECT_NAME          = MOPSSat_alt_35785_km_RAAN_90_130
OBJECT_ID            = SatId
CENTER_NAME          = Earth
REF_FRAME            = EME2000
TIME_SYSTEM          = UTC
START_TIME           = 2017-01-01T00:00:00.000
USEABLE_START_TIME   = 2017-01-01T00:00:00.000
USEABLE_STOP_TIME    = 2017-01-02T00:00:00.000
STOP_TIME            = 2017-01-02T00:00:00.000
INTERPOLATION        = Lagrange
INTERPOLATION_DEGREE = 7 
META_STOP


                                                                                   

2017-01-01T10:50:50.000  -8.884736063310087e+03  -5.372967866188765e+04   1.565501088008416e+03   2.178482344241085e+00  -5.336984688124358e-01  -3.841610644701601e-01
2017-01-01T10:51:00.000  -8.862950145873807e+03  -5.373500902471708e+04   1.561659284452136e+03   2.178701135803083e+00  -5.323741156053149e-01  -3.841996455157357e-01
2017-01-01T10:51:10.000  -8.841162043094766e+03  -5.374032614399193e+04   1.557817095539058e+03   2.178919371215768e+00  -5.310497476214074e-01  -3.842381284978692e-01
2017-01-01T10:51:20.000  -8.819371760522492e+03  -5.374563001956682e+04   1.553974522247706e+03   2.179137050569659e+00  -5.297253649061916e-01  -3.842765134325115e-01
2017-01-01T10:51:30.000  -8.797579303717082e+03  -5.375092065129439e+04   1.550131565558469e+03   2.179354173954939e+00  -5.284009675057669e-01  -3.843148003355543e-01
2017-01-01T10:51:40.000  -8.775784678249069e+03  -5.375619803902460e+04   1.546288226453574e+03   2.179570741461430e+00  -5.270765554668546e-01  -3.843529892228255e-01
2017-01-01T10:51:50.000  -8.753987889909275e+03  -5.376146218255576e+04   1.542444505954101e+03   2.179786753176582e+00  -5.257521288495335e-01  -3.843910801097343e-01
2017-01-01T10:52:00.000  -8.732188944426287e+03  -5.376671308170116e+04   1.538600405070146e+03   2.180002209188206e+00  -5.244276877100855e-01  -3.844290730117544e-01
2017-01-01T10:52:10.000  -8.710387847577713e+03  -5.377195073626268e+04   1.534755924820457e+03   2.180217109583392e+00  -5.231032321077544e-01  -3.844669679442320e-01
2017-01-01T10:52:20.000  -8.688584604698230e+03  -5.377717514614890e+04   1.530911066145671e+03   2.180431454453355e+00  -5.217787620748575e-01  -3.845047649232402e-01
2017-01-01T10:52:30.000  -8.666779221171519e+03  -5.378238631125684e+04   1.527065829995067e+03   2.180645243888585e+00  -5.204542776466730e-01  -3.845424639647253e-01
2017-01-01T10:52:40.000  -8.644971702319095e+03  -5.378758423149892e+04   1.523220217306962e+03   2.180858477979952e+00  -5.191297788546845e-01  -3.845800650846991e-01
2017-01-01T10:52:50.000  -8.623162053682436e+03  -5.379276890673383e+04   1.519374229058463e+03   2.181071156815864e+00  -5.178052657437323e-01  -3.846175682987407e-01
2017-01-01T10:53:00.000  -8.601350280813618e+03  -5.379794033681829e+04   1.515527866228543e+03   2.181283280484400e+00  -5.164807383592799e-01  -3.846549736223706e-01
2017-01-01T10:53:10.000  -8.579536389275188e+03  -5.380309852160649e+04   1.511681129798025e+03   2.181494849073281e+00  -5.151561967474144e-01  -3.846922810710461e-01
2017-01-01T10:53:20.000  -8.557720384850185e+03  -5.380824346090209e+04   1.507834020786613e+03   2.181705862667907e+00  -5.138316409675833e-01  -3.847294906598148e-01
2017-01-01T10:53:30.000  -8.535902273259393e+03  -5.381337515452344e+04   1.503986540203033e+03   2.181916321354024e+00  -5.125070710754396e-01  -3.847666024037865e-01
2017-01-01T10:53:40.000  -8.514082060274781e+03  -5.381849360227719e+04   1.500138689065036e+03   2.182126225216650e+00  -5.111824871297279e-01  -3.848036163179418e-01
2017-01-01T10:53:50.000  -8.492259751218891e+03  -5.382359880407579e+04   1.496290468311122e+03   2.182335574344889e+00  -5.098578891618928e-01  -3.848405324179812e-01
2017-01-01T10:54:00.000  -8.470435351466733e+03  -5.382869075981947e+04   1.492441878889043e+03   2.182544368827093e+00  -5.085332772065486e-01  -3.848773507194740e-01
2017-01-01T10:54:10.000  -8.448608866316226e+03  -5.383376946942709e+04   1.488592921732953e+03   2.182752608752122e+00  -5.072086512936139e-01  -3.849140712380780e-01
2017-01-01T10:54:20.000  -8.426780301336505e+03  -5.383883493275315e+04   1.484743597824838e+03   2.182960294205952e+00  -5.058840114694604e-01  -3.849506939889427e-01
2017-01-01T10:54:30.000  -8.404949662080529e+03  -5.384388714965650e+04   1.480893908143831e+03   2.183167425274481e+00  -5.045593577794621e-01  -3.849872189872042e-01
2017-01-01T10:54:40.000  -8.383116954149251e+03  -5.384892611998496e+04   1.477043853677525e+03   2.183374002042902e+00  -5.032346902718899e-01  -3.850236462478739e-01
2017-01-01T10:54:50.000  -8.361282183174291e+03  -5.385395184358022e+04   1.473193435418925e+03   2.183580024595912e+00  -5.019100089968538e-01  -3.850599757858755e-01
2017-01-01T10:55:00.000  -8.339445354796082e+03  -5.385896432028212e+04   1.469342654362587e+03   2.183785493017874e+00  -5.005853140049839e-01  -3.850962076160745e-01
2017-01-01T10:55:10.000  -8.317606474656026e+03  -5.386396354993062e+04   1.465491511503240e+03   2.183990407392911e+00  -4.992606053469513e-01  -3.851323417532936e-01
2017-01-01T10:55:20.000  -8.295765548318430e+03  -5.386894953238404e+04   1.461640007822020e+03   2.184194767805641e+00  -4.979358830687348e-01  -3.851683782124430e-01
2017-01-01T10:55:30.000  -8.273922581322544e+03  -5.387392226750661e+04   1.457788144295637e+03   2.184398574340681e+00  -4.966111472147743e-01  -3.852043170084322e-01
2017-01-01T10:55:40.000  -8.252077579182518e+03  -5.387888175516862e+04   1.453935921896385e+03   2.184601827082640e+00  -4.952863978279750e-01  -3.852401581561700e-01
2017-01-01T10:55:50.000  -8.230230547335303e+03  -5.388382799525762e+04   1.450083341582936e+03   2.184804526116588e+00  -4.939616349465458e-01  -3.852759016706461e-01
2017-01-01T10:56:00.000  -8.208381491218794e+03  -5.388876098766132e+04   1.446230404314134e+03   2.185006671527345e+00  -4.926368586087397e-01  -3.853115475668060e-01
2017-01-01T10:56:10.000  -8.186530416279742e+03  -5.389368073226557e+04   1.442377111050381e+03   2.185208263399408e+00  -4.913120688533306e-01  -3.853470958595386e-01
2017-01-01T10:56:20.000  -8.164677327995395e+03  -5.389858722894891e+04   1.438523462757461e+03   2.185409301816724e+00  -4.899872657209319e-01  -3.853825465636353e-01
2017-01-01T10:56:30.000  -8.142822231891108e+03  -5.390348047757948e+04   1.434669460409639e+03   2.185609786862563e+00  -4.886624492550573e-01  -3.854178996937685e-01
2017-01-01T10:56:40.000  -8.120965133476024e+03  -5.390836047802915e+04   1.430815104978320e+03   2.185809718620094e+00  -4.873376194982241e-01  -3.854531552645927e-01
2017-01-01T10:56:50.000  -8.099106038531258e+03  -5.391322723011033e+04   1.426960397482872e+03   2.186009097169805e+00  -4.860127765094112e-01  -3.854883132902899e-01
2017-01-01T10:57:00.000  -8.077244952760711e+03  -5.391808073365279e+04   1.423105338929047e+03   2.186207922592642e+00  -4.846879203429039e-01  -3.855233737851221e-01
2017-01-01T10:57:10.000  -8.055381881920915e+03  -5.392292098847488e+04   1.419249930331877e+03   2.186406194968837e+00  -4.833630510561616e-01  -3.855583367632260e-01
2017-01-01T10:57:20.000  -8.033516831318135e+03  -5.392774799449509e+04   1.415394172626992e+03   2.186603914382470e+00  -4.820381686793417e-01  -3.855932022394168e-01
2017-01-01T10:57:30.000  -8.011649806309978e+03  -5.393256175162076e+04   1.411538066759078e+03   2.186801080916914e+00  -4.807132732456995e-01  -3.856279702283851e-01
2017-01-01T10:57:40.000  -7.989780812191776e+03  -5.393736225977337e+04   1.407681613661836e+03   2.186997694655878e+00  -4.793883647846992e-01  -3.856626407448801e-01
2017-01-01T10:57:50.000  -7.967909854479528e+03  -5.394214951882480e+04   1.403824814307887e+03   2.187193755680779e+00  -4.780634433391722e-01  -3.856972138032476e-01
2017-01-01T10:58:00.000  -7.946036938699935e+03  -5.394692352864511e+04   1.399967669671730e+03   2.187389264072720e+00  -4.767385089525796e-01  -3.857316894177776e-01
2017-01-01T10:58:10.000  -7.924162070390280e+03  -5.395168428910197e+04   1.396110180729737e+03   2.187584219912449e+00  -4.754135616690122e-01  -3.857660676026977e-01
2017-01-01T10:58:20.000  -7.902285255309000e+03  -5.395643180001662e+04   1.392252348497278e+03   2.187778623278570e+00  -4.740886015459311e-01  -3.858003483718567e-01
2017-01-01T10:58:30.000  -7.880406499152181e+03  -5.396116606122375e+04   1.388394173978726e+03   2.187972474249982e+00  -4.727636286370073e-01  -3.858345317391570e-01
2017-01-01T10:58:40.000  -7.858525807665190e+03  -5.396588707254785e+04   1.384535658187147e+03   2.188165772904919e+00  -4.714386429988828e-01  -3.858686177183822e-01
2017-01-01T10:58:50.000  -7.836643186148947e+03  -5.397059483390958e+04   1.380676802057227e+03   2.188358519325309e+00  -4.701136446612689e-01  -3.859026063239678e-01
2017-01-01T10:59:00.000  -7.814758639953648e+03  -5.397528934521921e+04   1.376817606532348e+03   2.188550713592398e+00  -4.687886336568487e-01  -3.859364975702293e-01
2017-01-01T10:59:10.000  -7.792872174367183e+03  -5.397997060640092e+04   1.372958072544902e+03   2.188742355787757e+00  -4.674636100145153e-01  -3.859702914715393e-01
2017-01-01T10:59:20.000  -7.770983794898330e+03  -5.398463861733035e+04   1.369098201066231e+03   2.188933445990718e+00  -4.661385737765324e-01  -3.860039880418751e-01
2017-01-01T10:59:30.000  -7.749093507066576e+03  -5.398929337788148e+04   1.365237993069570e+03   2.189123984280299e+00  -4.648135249857951e-01  -3.860375872951594e-01
2017-01-01T10:59:40.000  -7.727201316402024e+03  -5.399393488792593e+04   1.361377449530022e+03   2.189313970735169e+00  -4.634884636858297e-01  -3.860710892452527e-01
2017-01-01T10:59:50.000  -7.705307228656144e+03  -5.399856314729005e+04   1.357516571461730e+03   2.189503405431898e+00  -4.621633899335363e-01  -3.861044939056463e-01
